[
    {
        "Altitude(m)": 705263.8917086778,
        "Argument of Periapsis(deg)": 0.010251109067964361,
        "Eccentricity": 0.0,
        "Inclination(deg)": 45.0,
        "Latitude(deg)": 35.55574202303319,
        "Longitude(deg)": 98.99692923030314,
        "Mean Anomaly(deg)": 124.92539498273274,
        "RAAN(deg)": 64.99032325268762,
        "Satellite Name": "Constellation 1 293",
        "Satellite Number": 293,
        "Semi-Major Axis(m)": 7083131.272910544,
        "Time(s)": 171
    },
    {
        "Altitude(m)": 705257.9882010686,
        "Argument of Periapsis(deg)": 0.010311057074209765,
        "Eccentricity": 0.0,
        "Inclination(deg)": 45.0,
        "Latitude(deg)": 35.52542322199263,
        "Longitude(deg)": 99.05741883552862,
        "Mean Anomaly(deg)": 124.98609612298264,
        "RAAN(deg)": 64.99026666352205,
        "Satellite Name": "Constellation 1 293",
        "Satellite Number": 293,
        "Semi-Major Axis(m)": 7083131.272910544,
        "Time(s)": 172
    },
    {
        "Altitude(m)": 705252.0824973638,
        "Argument of Periapsis(deg)": 0.010371005080455171,
        "Eccentricity": 0.0,
        "Inclination(deg)": 45.0,
        "Latitude(deg)": 35.49506970774274,
        "Longitude(deg)": 99.11785987125228,
        "Mean Anomaly(deg)": 125.04679726323255,
        "RAAN(deg)": 64.99021007435647,
        "Satellite Name": "Constellation 1 293",
        "Satellite Number": 293,
        "Semi-Major Axis(m)": 7083131.272910544,
        "Time(s)": 173
    },
    {
        "Altitude(m)": 705246.1746350237,
        "Argument of Periapsis(deg)": 0.010430953086700577,
        "Eccentricity": 0.0,
        "Inclination(deg)": 45.0,
        "Latitude(deg)": 35.46468154439616,
        "Longitude(deg)": 99.17825237306411,
        "Mean Anomaly(deg)": 125.10749840348247,
        "RAAN(deg)": 64.9901534851909,
        "Satellite Name": "Constellation 1 293",
        "Satellite Number": 293,
        "Semi-Major Axis(m)": 7083131.272910544,
        "Time(s)": 174
    },
    {
        "Altitude(m)": 705240.2646515298,
        "Argument of Periapsis(deg)": 0.010490901092945983,
        "Eccentricity": 0.0,
        "Inclination(deg)": 45.0,
        "Latitude(deg)": 35.434258796004826,
        "Longitude(deg)": 99.23859637677589,
        "Mean Anomaly(deg)": 125.16819954373233,
        "RAAN(deg)": 64.99009689602535,
        "Satellite Name": "Constellation 1 293",
        "Satellite Number": 293,
        "Semi-Major Axis(m)": 7083131.272910544,
        "Time(s)": 175
    },
    {
        "Altitude(m)": 705234.3525843949,
        "Argument of Periapsis(deg)": 0.010550849099191389,
        "Eccentricity": 0.0,
        "Inclination(deg)": 45.0,
        "Latitude(deg)": 35.40380152655979,
        "Longitude(deg)": 99.29889191841986,
        "Mean Anomaly(deg)": 125.22890068398225,
        "RAAN(deg)": 64.99004030685977,
        "Satellite Name": "Constellation 1 293",
        "Satellite Number": 293,
        "Semi-Major Axis(m)": 7083131.272910544,
        "Time(s)": 176
    },
    {
        "Altitude(m)": 705228.4384711555,
        "Argument of Periapsis(deg)": 0.010610797105436795,
        "Eccentricity": 0.0,
        "Inclination(deg)": 45.0,
        "Latitude(deg)": 35.373309799990885,
        "Longitude(deg)": 99.35913903424765,
        "Mean Anomaly(deg)": 125.28960182423216,
        "RAAN(deg)": 64.9899837176942,
        "Satellite Name": "Constellation 1 293",
        "Satellite Number": 293,
        "Semi-Major Axis(m)": 7083131.272910544,
        "Time(s)": 177
    },
    {
        "Altitude(m)": 705222.5223493746,
        "Argument of Periapsis(deg)": 0.0106707451116822,
        "Eccentricity": 0.0,
        "Inclination(deg)": 45.0,
        "Latitude(deg)": 35.34278368016671,
        "Longitude(deg)": 99.41933759263158,
        "Mean Anomaly(deg)": 125.35030296448205,
        "RAAN(deg)": 64.98992712852862,
        "Satellite Name": "Constellation 1 293",
        "Satellite Number": 293,
        "Semi-Major Axis(m)": 7083131.272910544,
        "Time(s)": 178
    },
    {
        "Altitude(m)": 705216.6042566358,
        "Argument of Periapsis(deg)": 0.010730693117927606,
        "Eccentricity": 0.0,
        "Inclination(deg)": 45.0,
        "Latitude(deg)": 35.31222323089421,
        "Longitude(deg)": 99.47948796645258,
        "Mean Anomaly(deg)": 125.41100410473194,
        "RAAN(deg)": 64.98987053936307,
        "Satellite Name": "Constellation 1 293",
        "Satellite Number": 293,
        "Semi-Major Axis(m)": 7083131.272910544,
        "Time(s)": 179
    },
    {
        "Altitude(m)": 705210.6842305579,
        "Argument of Periapsis(deg)": 0.01079064112417301,
        "Eccentricity": 0.0,
        "Inclination(deg)": 45.0,
        "Latitude(deg)": 35.281628515918584,
        "Longitude(deg)": 99.5395900245152,
        "Mean Anomaly(deg)": 125.47170524498182,
        "RAAN(deg)": 64.98981395019749,
        "Satellite Name": "Constellation 1 293",
        "Satellite Number": 293,
        "Semi-Major Axis(m)": 7083131.272910544,
        "Time(s)": 180
    },
    {
        "Altitude(m)": 705204.7623087798,
        "Argument of Periapsis(deg)": 0.010850589130418416,
        "Eccentricity": 0.0,
        "Inclination(deg)": 45.0,
        "Latitude(deg)": 35.25099959892322,
        "Longitude(deg)": 99.59964380393545,
        "Mean Anomaly(deg)": 125.53240638523172,
        "RAAN(deg)": 64.98975736103192,
        "Satellite Name": "Constellation 1 293",
        "Satellite Number": 293,
        "Semi-Major Axis(m)": 7083131.272910544,
        "Time(s)": 181
    },
    {
        "Altitude(m)": 705198.8385289677,
        "Argument of Periapsis(deg)": 0.01091053713666382,
        "Eccentricity": 0.0,
        "Inclination(deg)": 45.0,
        "Latitude(deg)": 35.22033654352928,
        "Longitude(deg)": 99.65964934204233,
        "Mean Anomaly(deg)": 125.59310752548164,
        "RAAN(deg)": 64.98970077186635,
        "Satellite Name": "Constellation 1 293",
        "Satellite Number": 293,
        "Semi-Major Axis(m)": 7083131.272910544,
        "Time(s)": 182
    },
    {
        "Altitude(m)": 705192.912928807,
        "Argument of Periapsis(deg)": 0.010970485142909228,
        "Eccentricity": 0.0,
        "Inclination(deg)": 45.0,
        "Latitude(deg)": 35.189639413295545,
        "Longitude(deg)": 99.71960667637664,
        "Mean Anomaly(deg)": 125.65380866573153,
        "RAAN(deg)": 64.98964418270079,
        "Satellite Name": "Constellation 1 293",
        "Satellite Number": 293,
        "Semi-Major Axis(m)": 7083131.272910544,
        "Time(s)": 183
    },
    {
        "Altitude(m)": 705186.9855460228,
        "Argument of Periapsis(deg)": 0.011030433149154634,
        "Eccentricity": 0.0,
        "Inclination(deg)": 45.0,
        "Latitude(deg)": 35.15890827171828,
        "Longitude(deg)": 99.7795158446895,
        "Mean Anomaly(deg)": 125.71450980598145,
        "RAAN(deg)": 64.98958759353522,
        "Satellite Name": "Constellation 1 293",
        "Satellite Number": 293,
        "Semi-Major Axis(m)": 7083131.272910544,
        "Time(s)": 184
    },
    {
        "Altitude(m)": 705181.0564183465,
        "Argument of Periapsis(deg)": 0.01109038115540004,
        "Eccentricity": 0.0,
        "Inclination(deg)": 45.0,
        "Latitude(deg)": 35.128143182231156,
        "Longitude(deg)": 99.83937671684397,
        "Mean Anomaly(deg)": 125.77521094623135,
        "RAAN(deg)": 64.98953100436964,
        "Satellite Name": "Constellation 1 293",
        "Satellite Number": 293,
        "Semi-Major Axis(m)": 7083131.272910544,
        "Time(s)": 185
    },
    {
        "Altitude(m)": 705175.1255835504,
        "Argument of Periapsis(deg)": 0.011150329161645444,
        "Eccentricity": 0.0,
        "Inclination(deg)": 45.0,
        "Latitude(deg)": 35.097344208204746,
        "Longitude(deg)": 99.89918966720293,
        "Mean Anomaly(deg)": 125.83591208648126,
        "RAAN(deg)": 64.98947441520407,
        "Satellite Name": "Constellation 1 293",
        "Satellite Number": 293,
        "Semi-Major Axis(m)": 7083131.272910544,
        "Time(s)": 186
    },
    {
        "Altitude(m)": 705169.1930794154,
        "Argument of Periapsis(deg)": 0.01121027716789085,
        "Eccentricity": 0.0,
        "Inclination(deg)": 45.0,
        "Latitude(deg)": 35.06651141294668,
        "Longitude(deg)": 99.95895456604424,
        "Mean Anomaly(deg)": 125.89661322673112,
        "RAAN(deg)": 64.98941782603852,
        "Satellite Name": "Constellation 1 293",
        "Satellite Number": 293,
        "Semi-Major Axis(m)": 7083131.272910544,
        "Time(s)": 187
    },
    {
        "Altitude(m)": 705163.2589437597,
        "Argument of Periapsis(deg)": 0.011270225174136258,
        "Eccentricity": 0.0,
        "Inclination(deg)": 45.0,
        "Latitude(deg)": 35.03564485970127,
        "Longitude(deg)": 100.01867145194835,
        "Mean Anomaly(deg)": 125.95731436698102,
        "RAAN(deg)": 64.98936123687294,
        "Satellite Name": "Constellation 1 293",
        "Satellite Number": 293,
        "Semi-Major Axis(m)": 7083131.272910544,
        "Time(s)": 188
    },
    {
        "Altitude(m)": 705157.3232144219,
        "Argument of Periapsis(deg)": 0.011330173180381662,
        "Eccentricity": 0.0,
        "Inclination(deg)": 45.0,
        "Latitude(deg)": 35.00474461164928,
        "Longitude(deg)": 100.07834036370008,
        "Mean Anomaly(deg)": 126.01801550723093,
        "RAAN(deg)": 64.98930464770737,
        "Satellite Name": "Constellation 1 293",
        "Satellite Number": 293,
        "Semi-Major Axis(m)": 7083131.272910544,
        "Time(s)": 189
    }
]